GLOBALSTAR M045 [-]     
1 25676U 99019A   23315.84861881 -.00000022  00000+0  62843-3 0  9992
2 25676  51.9949 167.8508 0001688 101.6391 272.5899 12.27019224121785
GLOBALSTAR M019 [-]     
1 25677U 99019B   23315.85099387 -.00000205  00000+0 -11987-2 0  9994
2 25677  51.9881 257.1766 0000317 191.3197 184.8307 12.13846832114305
GLOBALSTAR M044 [-]     
1 25678U 99019C   23315.76747993 -.00000052  00000+0  43524-3 0  9990
2 25678  51.9940 135.7818 0006323   4.2087   8.8005 11.90226956101853
GLOBALSTAR M042 [-]     
1 25679U 99019D   23315.80528087 -.00000049  00000+0  40412-3 0  9996
2 25679  52.0015 257.8079 0002702 166.0214 209.5555 12.22050924113938
GLOBALSTAR M025 [-]     
1 25770U 99031A   23315.60019763 -.00000075  00000+0 -21721-3 0  9998
2 25770  51.9820  71.1780 0000917 206.0494 166.6656 11.22547033416177
GLOBALSTAR M049 [-]     
1 25771U 99031B   23315.65336211 -.00000131  00000+0 -23000-2 0  9998
2 25771  51.9873  76.4913 0003712 115.1813 244.9369 11.12102611 52505
GLOBALSTAR M047 [-]     
1 25772U 99031C   23315.78632109 -.00000058  00000+0  33416-3 0  9998
2 25772  51.9799 128.8984 0015852 345.2120  14.8221 11.31917282405049
GLOBALSTAR M052 [-]     
1 25773U 99031D   23315.91528038 -.00000043  00000+0  75633-3 0  9990
2 25773  51.9846 192.7776 0001642 311.7473 134.2248 11.15047148413449
